IRIDIUM 119             
1 42959U 17061E   24337.49012539  .00000077  00000+0  20466-4 0  9991
2 42959  86.3962 259.9299 0002491  75.8733 284.2739 14.34217162374302
IRIDIUM 107             
1 42960U 17061F   24337.50915002  .00000037  00000+0  60675-5 0  9995
2 42960  86.3970 259.9402 0002063  70.5890 289.5529 14.34217195374312
IRIDIUM 132             
1 42961U 17061G   24337.30618815  .00000744  00000+0  25864-3 0  9990
2 42961  86.3966 260.0085 0002143  77.9872 282.1564 14.34219829374288
IRIDIUM 136             
1 42962U 17061H   24337.19834844  .00000931  00000+0  32535-3 0  9991
2 42962  86.3971 260.0578 0002260  74.3414 285.8031 14.34229081374285
IRIDIUM 139             
1 42963U 17061J   24337.55354226  .00000915  00000+0  31973-3 0  9990
2 42963  86.3969 259.9622 0002271  75.7401 284.4047 14.34223191374348
IRIDIUM 125             
1 42964U 17061K   24337.54086600  .00000826  00000+0  28799-3 0  9991
2 42964  86.3969 260.0180 0002687  71.4182 288.7305 14.34214395374352
IRIDIUM 135             
1 43070U 17083A   24337.37545225  .00000272  00000+0  90148-4 0  9991
2 43070  86.4008 196.7999 0001863  92.8295 267.3114 14.34218914363626
IRIDIUM 138             
1 43071U 17083B   24337.54035363  .00000076  00000+0  19907-4 0  9994
2 43071  86.3990 196.4275 0002780  84.3670 275.7843 14.34219997363637
